CARTOSAT-2F             
1 43111U 18004A   26062.89207087  .00004449  00000+0  21467-3 0  9993
2 43111  97.4174 124.1561 0000532 266.5285  93.5889 15.19191784451343
LKW-3                   
1 43146U 18006A   26062.84743961  .00016756  00000+0  52950-3 0  9999
2 43146  97.6460 219.5602 0002567 337.0136  23.0990 15.32885525452569
ASNARO-2                
1 43152U 18007A   26062.82484405  .00012619  00000+0  54870-3 0  9997
2 43152  97.4020  71.3670 0001727  90.2792 269.8642 15.22400843451386
JILIN-1 07              
1 43159U 18008E   26062.79753226  .00012229  00000+0  38716-3 0  9999
2 43159  97.1871  85.6180 0010541  80.6444 279.5990 15.32834412448844
JILIN-1 08              
1 43160U 18008F   26062.80375995  .00013028  00000+0  42257-3 0  9999
2 43160  97.1897  85.0342 0008267  92.6121 267.6068 15.32064638448800
LEMUR-2-KADI            
1 43184U 18014E   26062.71668867  .00111622  00000+0  12276-2 0  9991
2 43184  97.4721 347.0454 0001001  52.0039 308.1309 15.62800814444450
S-NET D                 
1 43186U 18014G   26062.73239906  .00008439  00000+0  44814-3 0  9998
2 43186  97.5448 328.2209 0009486  33.9443 326.2394 15.15532171442785
S-NET B                 
1 43187U 18014H   26062.67582185  .00008646  00000+0  45932-3 0  9994
2 43187  97.5455 328.1481 0009952  29.1842 330.9945 15.15502968442777
S-NET A                 
1 43188U 18014J   26062.73177233  .00008387  00000+0  44524-3 0  9994
2 43188  97.5465 328.3934 0009903  30.1926 329.9875 15.15538717442787
S-NET C                 
1 43189U 18014K   26062.67913857  .00008708  00000+0  46261-3 0  9995
2 43189  97.5478 328.3992 0011067  21.8475 338.3227 15.15495189441325
PAZ                     
1 43215U 18020A   26062.84948326  .00003035  00000+0  14771-3 0  9999
2 43215  97.4455  71.7338 0001798  88.2184 271.9257 15.19142885445017
GOES 17                 
1 43226U 18022A   26062.64011435 -.00000196  00000+0  00000+0 0  9995
2 43226   0.6662  87.5708 0002289 220.2416 354.5211  1.00270410 29368
LKW-4                   
1 43236U 18025A   26062.43918883  .00043713  00000+0  67601-3 0  9994
2 43236  97.6250 225.7507 0002779 325.4735  34.6337 15.53958819443563
ZHUHAI-1 OVS-02         
1 43440U 18040B   26062.87057146  .00008891  00000+0  37404-3 0  9998
2 43440  97.0493  86.3950 0001727 268.8317  91.2723 15.23599973436675
ZHUHAI-1 OHS-02         
1 43441U 18040C   26062.84429528  .00009310  00000+0  38309-3 0  9995
2 43441  97.0498  93.2034 0008078 238.2205 121.8247 15.24309166 98224
GAOFEN-6                
1 43484U 18048A   26062.83277905  .00000946  00000+0  14240-3 0  9993
2 43484  97.7890 129.3203 0012759 152.4050 207.7840 14.76583690417847
LUOJIA-1 01             
1 43485U 18048B   26062.86969072  .00000718  00000+0  86479-4 0  9991
2 43485  97.8168 142.7602 0010396 106.2229 254.0132 14.86833590418566
