[{"OBJECT_NAME":"CARTOSAT-2F","OBJECT_ID":"2018-004A","EPOCH":"2026-03-03T21:24:34.923168","MEAN_MOTION":15.19191784,"ECCENTRICITY":5.32e-5,"INCLINATION":97.4174,"RA_OF_ASC_NODE":124.1561,"ARG_OF_PERICENTER":266.5285,"MEAN_ANOMALY":93.5889,"EPHEMERIS_TYPE":0,"CLASSIFICATION_TYPE":"U","NORAD_CAT_ID":43111,"ELEMENT_SET_NO":999,"REV_AT_EPOCH":45134,"BSTAR":0.00021467,"MEAN_MOTION_DOT":4.449e-5,"MEAN_MOTION_DDOT":0},{"OBJECT_NAME":"LKW-3","OBJECT_ID":"2018-006A","EPOCH":"2026-03-03T20:20:18.782304","MEAN_MOTION":15.32885525,"ECCENTRICITY":0.0002567,"INCLINATION":97.646,"RA_OF_ASC_NODE":219.5602,"ARG_OF_PERICENTER":337.0136,"MEAN_ANOMALY":23.099,"EPHEMERIS_TYPE":0,"CLASSIFICATION_TYPE":"U","NORAD_CAT_ID":43146,"ELEMENT_SET_NO":999,"REV_AT_EPOCH":45256,"BSTAR":0.0005295,"MEAN_MOTION_DOT":0.00016756,"MEAN_MOTION_DDOT":0},{"OBJECT_NAME":"ASNARO-2","OBJECT_ID":"2018-007A","EPOCH":"2026-03-03T19:47:46.525920","MEAN_MOTION":15.22400843,"ECCENTRICITY":0.0001727,"INCLINATION":97.402,"RA_OF_ASC_NODE":71.367,"ARG_OF_PERICENTER":90.2792,"MEAN_ANOMALY":269.8642,"EPHEMERIS_TYPE":0,"CLASSIFICATION_TYPE":"U","NORAD_CAT_ID":43152,"ELEMENT_SET_NO":999,"REV_AT_EPOCH":45138,"BSTAR":0.0005487,"MEAN_MOTION_DOT":0.00012619,"MEAN_MOTION_DDOT":0},{"OBJECT_NAME":"JILIN-1 07","OBJECT_ID":"2018-008E","EPOCH":"2026-03-03T19:08:26.787264","MEAN_MOTION":15.32834412,"ECCENTRICITY":0.0010541,"INCLINATION":97.1871,"RA_OF_ASC_NODE":85.618,"ARG_OF_PERICENTER":80.6444,"MEAN_ANOMALY":279.599,"EPHEMERIS_TYPE":0,"CLASSIFICATION_TYPE":"U","NORAD_CAT_ID":43159,"ELEMENT_SET_NO":999,"REV_AT_EPOCH":44884,"BSTAR":0.00038716,"MEAN_MOTION_DOT":0.00012229,"MEAN_MOTION_DDOT":0},{"OBJECT_NAME":"JILIN-1 08","OBJECT_ID":"2018-008F","EPOCH":"2026-03-03T19:17:24.859680","MEAN_MOTION":15.32064638,"ECCENTRICITY":0.0008267,"INCLINATION":97.1897,"RA_OF_ASC_NODE":85.0342,"ARG_OF_PERICENTER":92.6121,"MEAN_ANOMALY":267.6068,"EPHEMERIS_TYPE":0,"CLASSIFICATION_TYPE":"U","NORAD_CAT_ID":43160,"ELEMENT_SET_NO":999,"REV_AT_EPOCH":44880,"BSTAR":0.00042257,"MEAN_MOTION_DOT":0.00013028,"MEAN_MOTION_DDOT":0},{"OBJECT_NAME":"LEMUR-2-KADI","OBJECT_ID":"2018-014E","EPOCH":"2026-03-03T17:12:01.901088","MEAN_MOTION":15.62800814,"ECCENTRICITY":0.0001001,"INCLINATION":97.4721,"RA_OF_ASC_NODE":347.0454,"ARG_OF_PERICENTER":52.0039,"MEAN_ANOMALY":308.1309,"EPHEMERIS_TYPE":0,"CLASSIFICATION_TYPE":"U","NORAD_CAT_ID":43184,"ELEMENT_SET_NO":999,"REV_AT_EPOCH":44445,"BSTAR":0.0012276,"MEAN_MOTION_DOT":0.00111622,"MEAN_MOTION_DDOT":0},{"OBJECT_NAME":"S-NET D","OBJECT_ID":"2018-014G","EPOCH":"2026-03-03T17:34:39.278784","MEAN_MOTION":15.15532171,"ECCENTRICITY":0.0009486,"INCLINATION":97.5448,"RA_OF_ASC_NODE":328.2209,"ARG_OF_PERICENTER":33.9443,"MEAN_ANOMALY":326.2394,"EPHEMERIS_TYPE":0,"CLASSIFICATION_TYPE":"U","NORAD_CAT_ID":43186,"ELEMENT_SET_NO":999,"REV_AT_EPOCH":44278,"BSTAR":0.00044814,"MEAN_MOTION_DOT":8.439e-5,"MEAN_MOTION_DDOT":0},{"OBJECT_NAME":"S-NET B","OBJECT_ID":"2018-014H","EPOCH":"2026-03-03T16:13:11.007840","MEAN_MOTION":15.15502968,"ECCENTRICITY":0.0009952,"INCLINATION":97.5455,"RA_OF_ASC_NODE":328.1481,"ARG_OF_PERICENTER":29.1842,"MEAN_ANOMALY":330.9945,"EPHEMERIS_TYPE":0,"CLASSIFICATION_TYPE":"U","NORAD_CAT_ID":43187,"ELEMENT_SET_NO":999,"REV_AT_EPOCH":44277,"BSTAR":0.00045932,"MEAN_MOTION_DOT":8.646e-5,"MEAN_MOTION_DDOT":0},{"OBJECT_NAME":"S-NET A","OBJECT_ID":"2018-014J","EPOCH":"2026-03-03T17:33:45.129312","MEAN_MOTION":15.15538717,"ECCENTRICITY":0.0009903,"INCLINATION":97.5465,"RA_OF_ASC_NODE":328.3934,"ARG_OF_PERICENTER":30.1926,"MEAN_ANOMALY":329.9875,"EPHEMERIS_TYPE":0,"CLASSIFICATION_TYPE":"U","NORAD_CAT_ID":43188,"ELEMENT_SET_NO":999,"REV_AT_EPOCH":44278,"BSTAR":0.00044524,"MEAN_MOTION_DOT":8.387e-5,"MEAN_MOTION_DDOT":0},{"OBJECT_NAME":"S-NET C","OBJECT_ID":"2018-014K","EPOCH":"2026-03-03T16:17:57.572448","MEAN_MOTION":15.15495189,"ECCENTRICITY":0.0011067,"INCLINATION":97.5478,"RA_OF_ASC_NODE":328.3992,"ARG_OF_PERICENTER":21.8475,"MEAN_ANOMALY":338.3227,"EPHEMERIS_TYPE":0,"CLASSIFICATION_TYPE":"U","NORAD_CAT_ID":43189,"ELEMENT_SET_NO":999,"REV_AT_EPOCH":44132,"BSTAR":0.00046261,"MEAN_MOTION_DOT":8.708e-5,"MEAN_MOTION_DDOT":0},{"OBJECT_NAME":"PAZ","OBJECT_ID":"2018-020A","EPOCH":"2026-03-03T20:23:15.353664","MEAN_MOTION":15.19142885,"ECCENTRICITY":0.0001798,"INCLINATION":97.4455,"RA_OF_ASC_NODE":71.7338,"ARG_OF_PERICENTER":88.2184,"MEAN_ANOMALY":271.9257,"EPHEMERIS_TYPE":0,"CLASSIFICATION_TYPE":"U","NORAD_CAT_ID":43215,"ELEMENT_SET_NO":999,"REV_AT_EPOCH":44501,"BSTAR":0.00014771,"MEAN_MOTION_DOT":3.035e-5,"MEAN_MOTION_DDOT":0},{"OBJECT_NAME":"GOES 17","OBJECT_ID":"2018-022A","EPOCH":"2026-03-03T15:21:45.879840","MEAN_MOTION":1.0027041,"ECCENTRICITY":0.0002289,"INCLINATION":0.6662,"RA_OF_ASC_NODE":87.5708,"ARG_OF_PERICENTER":220.2416,"MEAN_ANOMALY":354.5211,"EPHEMERIS_TYPE":0,"CLASSIFICATION_TYPE":"U","NORAD_CAT_ID":43226,"ELEMENT_SET_NO":999,"REV_AT_EPOCH":2936,"BSTAR":0,"MEAN_MOTION_DOT":-1.96e-6,"MEAN_MOTION_DDOT":0},{"OBJECT_NAME":"LKW-4","OBJECT_ID":"2018-025A","EPOCH":"2026-03-03T10:32:25.914912","MEAN_MOTION":15.53958819,"ECCENTRICITY":0.00027795,"INCLINATION":97.625,"RA_OF_ASC_NODE":225.7507,"ARG_OF_PERICENTER":325.4735,"MEAN_ANOMALY":34.6337,"EPHEMERIS_TYPE":0,"CLASSIFICATION_TYPE":"U","NORAD_CAT_ID":43236,"ELEMENT_SET_NO":999,"REV_AT_EPOCH":44356,"BSTAR":0.00067601094,"MEAN_MOTION_DOT":0.00043713,"MEAN_MOTION_DDOT":0},{"OBJECT_NAME":"ZHUHAI-1 OVS-02","OBJECT_ID":"2018-040B","EPOCH":"2026-03-03T20:53:37.374144","MEAN_MOTION":15.23599973,"ECCENTRICITY":0.0001727,"INCLINATION":97.0493,"RA_OF_ASC_NODE":86.395,"ARG_OF_PERICENTER":268.8317,"MEAN_ANOMALY":91.2723,"EPHEMERIS_TYPE":0,"CLASSIFICATION_TYPE":"U","NORAD_CAT_ID":43440,"ELEMENT_SET_NO":999,"REV_AT_EPOCH":43667,"BSTAR":0.00037404,"MEAN_MOTION_DOT":8.891e-5,"MEAN_MOTION_DDOT":0},{"OBJECT_NAME":"ZHUHAI-1 OHS-02","OBJECT_ID":"2018-040C","EPOCH":"2026-03-03T20:15:47.112192","MEAN_MOTION":15.24309166,"ECCENTRICITY":0.0008078,"INCLINATION":97.0498,"RA_OF_ASC_NODE":93.2034,"ARG_OF_PERICENTER":238.2205,"MEAN_ANOMALY":121.8247,"EPHEMERIS_TYPE":0,"CLASSIFICATION_TYPE":"U","NORAD_CAT_ID":43441,"ELEMENT_SET_NO":999,"REV_AT_EPOCH":9822,"BSTAR":0.00038309,"MEAN_MOTION_DOT":9.31e-5,"MEAN_MOTION_DDOT":0},{"OBJECT_NAME":"GAOFEN-6","OBJECT_ID":"2018-048A","EPOCH":"2026-03-03T19:59:12.109920","MEAN_MOTION":14.7658369,"ECCENTRICITY":0.0012759,"INCLINATION":97.789,"RA_OF_ASC_NODE":129.3203,"ARG_OF_PERICENTER":152.405,"MEAN_ANOMALY":207.784,"EPHEMERIS_TYPE":0,"CLASSIFICATION_TYPE":"U","NORAD_CAT_ID":43484,"ELEMENT_SET_NO":999,"REV_AT_EPOCH":41784,"BSTAR":0.0001424,"MEAN_MOTION_DOT":9.46e-6,"MEAN_MOTION_DDOT":0},{"OBJECT_NAME":"LUOJIA-1 01","OBJECT_ID":"2018-048B","EPOCH":"2026-03-03T20:52:21.278208","MEAN_MOTION":14.8683359,"ECCENTRICITY":0.0010396,"INCLINATION":97.8168,"RA_OF_ASC_NODE":142.7602,"ARG_OF_PERICENTER":106.2229,"MEAN_ANOMALY":254.0132,"EPHEMERIS_TYPE":0,"CLASSIFICATION_TYPE":"U","NORAD_CAT_ID":43485,"ELEMENT_SET_NO":999,"REV_AT_EPOCH":41856,"BSTAR":8.6479e-5,"MEAN_MOTION_DOT":7.18e-6,"MEAN_MOTION_DDOT":0}]
